TRANSPORTER-12 OBJECT BT
1 62674U 25009BT  26068.71416991  .00013824  00000+0  51029-3 0  9998
2 62674  97.4094 151.5992 0003682 313.5044  46.5889 15.27872239121360
STARLINK-36095          
1 66871U 25281Z   26068.22834174  .00046695  00000+0  16952-2 0  9993
2 66871  43.0043 346.1916 0002338 259.0875 100.9714 15.27588294 16095
